start=new Date('2022-07-09T00:00:00.000Z').valueOf();
sats=[{"COUNTRY_CODE":"US","ARG_OF_PERICENTER":"48.0175","LAUNCH_DATE":"2020-08-18","TIME_SYSTEM":"UTC","SEMIMAJOR_AXIS":"6925.344","REV_AT_EPOCH":"10563","RCS_SIZE":"LARGE","NORAD_CAT_ID":"46160","BSTAR":"0.00009542300000","MEAN_ELEMENT_THEORY":"SGP4","SITE":"AFETR","OBJECT_ID":"2020-057AV","TLE_LINE1":"1 46160U 20057AV  22189.74529568  .00001140  00000-0  95423-4 0  9992","APOAPSIS":"548.567","MEAN_MOTION":"15.06401401","OBJECT_NAME":"STARLINK-1598","EPOCH":"2022-07-08T17:53:13.546752","MEAN_MOTION_DOT":"0.00001140","GP_ID":"207693237","CLASSIFICATION_TYPE":"U","RA_OF_ASC_NODE":"191.8583","EPHEMERIS_TYPE":"0","PERIOD":"95.592","FILE":"3510087","ELEMENT_SET_NO":"999","MEAN_ANOMALY":"312.0981","INCLINATION":"53.0536","ECCENTRICITY":"0.00019610","MEAN_MOTION_DDOT":"0.0000000000000","TLE_LINE2":"2 46160  53.0536 191.8583 0001961  48.0175 312.0981 15.06401401105639","OBJECT_TYPE":"PAYLOAD","REF_FRAME":"TEME","PERIAPSIS":"545.851","CENTER_NAME":"EARTH","DECAY_DATE":null},{"ARG_OF_PERICENTER":"73.6532","LAUNCH_DATE":"2020-08-18","COUNTRY_CODE":"US","RCS_SIZE":"LARGE","NORAD_CAT_ID":"46161","REV_AT_EPOCH":"10564","SEMIMAJOR_AXIS":"6925.375","TIME_SYSTEM":"UTC","OBJECT_ID":"2020-057AW","TLE_LINE1":"1 46161U 20057AW  22189.78954062  .00001604  00000-0  12655-3 0  9998","SITE":"AFETR","MEAN_ELEMENT_THEORY":"SGP4","BSTAR":"0.00012655000000","OBJECT_NAME":"STARLINK-1600","MEAN_MOTION":"15.06391427","APOAPSIS":"548.173","PERIOD":"95.593","EPHEMERIS_TYPE":"0","GP_ID":"207692987","MEAN_MOTION_DOT":"0.00001604","RA_OF_ASC_NODE":"191.6573","CLASSIFICATION_TYPE":"U","EPOCH":"2022-07-08T18:56:56.309568","MEAN_ANOMALY":"286.4605","ELEMENT_SET_NO":"999","FILE":"3510087","OBJECT_TYPE":"PAYLOAD","TLE_LINE2":"2 46161  53.0536 191.6573 0001347  73.6532 286.4605 15.06391427105640","ECCENTRICITY":"0.00013470","MEAN_MOTION_DDOT":"0.0000000000000","INCLINATION":"53.0536","DECAY_DATE":null,"PERIAPSIS":"546.307","CENTER_NAME":"EARTH","REF_FRAME":"TEME"},{"APOAPSIS":"548.381","MEAN_MOTION":"15.06403377","OBJECT_NAME":"STARLINK-1603","BSTAR":"0.00010183000000","MEAN_ELEMENT_THEORY":"SGP4","SITE":"AFETR","TLE_LINE1":"1 46162U 20057AX  22189.72687406  .00001236  00000-0  10183-3 0  9993","OBJECT_ID":"2020-057AX","SEMIMAJOR_AXIS":"6925.338","TIME_SYSTEM":"UTC","REV_AT_EPOCH":"10564","RCS_SIZE":"LARGE","NORAD_CAT_ID":"46162","COUNTRY_CODE":"US","LAUNCH_DATE":"2020-08-18","ARG_OF_PERICENTER":"67.2082","REF_FRAME":"TEME","CENTER_NAME":"EARTH","PERIAPSIS":"546.025","DECAY_DATE":null,"INCLINATION":"53.0540","MEAN_MOTION_DDOT":"0.0000000000000","ECCENTRICITY":"0.00017010","TLE_LINE2":"2 46162  53.0540 191.9574 0001701  67.2082 292.9087 15.06403377105647","OBJECT_TYPE":"PAYLOAD","FILE":"3510087","MEAN_ANOMALY":"292.9087","ELEMENT_SET_NO":"999","EPOCH":"2022-07-08T17:26:41.918784","CLASSIFICATION_TYPE":"U","RA_OF_ASC_NODE":"191.9574","GP_ID":"207692236","MEAN_MOTION_DOT":"0.00001236","EPHEMERIS_TYPE":"0","PERIOD":"95.592"},{"ELEMENT_SET_NO":"999","MEAN_ANOMALY":"297.9957","FILE":"3510087","PERIOD":"95.592","EPHEMERIS_TYPE":"0","CLASSIFICATION_TYPE":"U","RA_OF_ASC_NODE":"172.2403","GP_ID":"207692486","MEAN_MOTION_DOT":"0.00002303","EPOCH":"2022-07-08T15:48:29.984832","DECAY_DATE":null,"CENTER_NAME":"EARTH","PERIAPSIS":"545.712","REF_FRAME":"TEME","OBJECT_TYPE":"PAYLOAD","TLE_LINE2":"2 46163  53.0548 172.2403 0002138  62.1249 297.9957 15.06406747104658","MEAN_MOTION_DDOT":"0.0000000000000","ECCENTRICITY":"0.00021380","INCLINATION":"53.0548","RCS_SIZE":"LARGE","NORAD_CAT_ID":"46163","REV_AT_EPOCH":"10465","SEMIMAJOR_AXIS":"6925.328","TIME_SYSTEM":"UTC","LAUNCH_DATE":"2020-08-18","ARG_OF_PERICENTER":"62.1249","COUNTRY_CODE":"US","OBJECT_NAME":"STARLINK-1610","MEAN_MOTION":"15.06406747","APOAPSIS":"548.674","TLE_LINE1":"1 46163U 20057AY  22189.65868038  .00002303  00000-0  17346-3 0  9992","OBJECT_ID":"2020-057AY","SITE":"AFETR","MEAN_ELEMENT_THEORY":"SGP4","BSTAR":"0.00017346000000"},{"PERIAPSIS":"545.969","CENTER_NAME":"EARTH","DECAY_DATE":null,"REF_FRAME":"TEME","TLE_LINE2":"2 46164  53.0536 172.2594 0001789  73.0813 287.0372 15.06401869105917","OBJECT_TYPE":"PAYLOAD","INCLINATION":"53.0536","ECCENTRICITY":"0.00017890","MEAN_MOTION_DDOT":"0.0000000000000","MEAN_ANOMALY":"287.0372","ELEMENT_SET_NO":"999","FILE":"3510087","EPHEMERIS_TYPE":"0","PERIOD":"95.592","EPOCH":"2022-07-08T15:43:11.022816","MEAN_MOTION_DOT":"0.00002585","GP_ID":"207692737","CLASSIFICATION_TYPE":"U","RA_OF_ASC_NODE":"172.2594","OBJECT_NAME":"STARLINK-1612","APOAPSIS":"548.447","MEAN_MOTION":"15.06401869","SITE":"AFETR","TLE_LINE1":"1 46164U 20057AZ  22189.65498869  .00002585  00000-0  19240-3 0  9991","OBJECT_ID":"2020-057AZ","BSTAR":"0.00019240000000","MEAN_ELEMENT_THEORY":"SGP4","REV_AT_EPOCH":"10591","NORAD_CAT_ID":"46164","RCS_SIZE":"LARGE","SEMIMAJOR_AXIS":"6925.343","TIME_SYSTEM":"UTC","COUNTRY_CODE":"US","ARG_OF_PERICENTER":"73.0813","LAUNCH_DATE":"2020-08-18"},{"FILE":"3510087","ELEMENT_SET_NO":"999","MEAN_ANOMALY":"11.2425","GP_ID":"207693488","MEAN_MOTION_DOT":"0.00003842","CLASSIFICATION_TYPE":"U","RA_OF_ASC_NODE":"207.1915","EPOCH":"2022-07-08T18:13:34.758912","PERIOD":"95.139","EPHEMERIS_TYPE":"0","REF_FRAME":"TEME","DECAY_DATE":null,"PERIAPSIS":"524.107","CENTER_NAME":"EARTH","ECCENTRICITY":"0.00017220","MEAN_MOTION_DDOT":"0.0000000000000","INCLINATION":"53.0519","OBJECT_TYPE":"PAYLOAD","TLE_LINE2":"2 46165  53.0519 207.1915 0001722 348.8529  11.2425 15.13579685104171","SEMIMAJOR_AXIS":"6903.431","TIME_SYSTEM":"UTC","NORAD_CAT_ID":"46165","RCS_SIZE":"LARGE","REV_AT_EPOCH":"10417","ARG_OF_PERICENTER":"348.8529","LAUNCH_DATE":"2020-08-18","COUNTRY_CODE":"US","MEAN_MOTION":"15.13579685","APOAPSIS":"526.485","OBJECT_NAME":"STARLINK-1613","MEAN_ELEMENT_THEORY":"SGP4","BSTAR":"0.00022818000000","TLE_LINE1":"1 46165U 20057BA  22189.75943008  .00003842  00000-0  22818-3 0  9995","OBJECT_ID":"2020-057BA","SITE":"AFETR"},{"DECAY_DATE":null,"PERIAPSIS":"546.152","CENTER_NAME":"EARTH","REF_FRAME":"TEME","OBJECT_TYPE":"PAYLOAD","TLE_LINE2":"2 46166  53.0544 212.9311 0001557  74.7736 285.3425 15.06394644104733","ECCENTRICITY":"0.00015570","MEAN_MOTION_DDOT":"0.0000000000000","INCLINATION":"53.0544","ELEMENT_SET_NO":"999","MEAN_ANOMALY":"285.3425","FILE":"3509957","PERIOD":"95.592","EPHEMERIS_TYPE":"0","MEAN_MOTION_DOT":"-0.00000215","GP_ID":"207670170","CLASSIFICATION_TYPE":"U","RA_OF_ASC_NODE":"212.9311","EPOCH":"2022-07-08T12:10:53.661792","OBJECT_NAME":"STARLINK-1615","MEAN_MOTION":"15.06394644","APOAPSIS":"548.308","OBJECT_ID":"2020-057BB","TLE_LINE1":"1 46166U 20057BB  22189.50756553 -.00000215  00000-0  44396-5 0  9995","SITE":"AFETR","MEAN_ELEMENT_THEORY":"SGP4","BSTAR":"0.00000443960000","NORAD_CAT_ID":"46166","RCS_SIZE":"LARGE","REV_AT_EPOCH":"10473","SEMIMAJOR_AXIS":"6925.365","TIME_SYSTEM":"UTC","ARG_OF_PERICENTER":"74.7736","LAUNCH_DATE":"2020-08-18","COUNTRY_CODE":"US"},{"REF_FRAME":"TEME","DECAY_DATE":null,"PERIAPSIS":"546.122","CENTER_NAME":"EARTH","ECCENTRICITY":"0.00015700","MEAN_MOTION_DDOT":"0.0000000000000","INCLINATION":"53.0524","OBJECT_TYPE":"PAYLOAD","TLE_LINE2":"2 46167  53.0524 211.6733 0001570  61.7579 298.3568 15.06401518104115","FILE":"3510087","MEAN_ANOMALY":"298.3568","ELEMENT_SET_NO":"999","GP_ID":"207691986","MEAN_MOTION_DOT":"0.00000301","RA_OF_ASC_NODE":"211.6733","CLASSIFICATION_TYPE":"U","EPOCH":"2022-07-08T18:54:16.677792","PERIOD":"95.592","EPHEMERIS_TYPE":"0","MEAN_MOTION":"15.06401518","APOAPSIS":"548.296","OBJECT_NAME":"STARLINK-1626","MEAN_ELEMENT_THEORY":"SGP4","BSTAR":"0.00003911300000","TLE_LINE1":"1 46167U 20057BC  22189.78769303  .00000301  00000-0  39113-4 0  9998","OBJECT_ID":"2020-057BC","SITE":"AFETR","SEMIMAJOR_AXIS":"6925.344","TIME_SYSTEM":"UTC","NORAD_CAT_ID":"46167","RCS_SIZE":"LARGE","REV_AT_EPOCH":"10411","ARG_OF_PERICENTER":"61.7579","LAUNCH_DATE":"2020-08-18","COUNTRY_CODE":"US"},{"SEMIMAJOR_AXIS":"6925.339","TIME_SYSTEM":"UTC","NORAD_CAT_ID":"46168","RCS_SIZE":"LARGE","REV_AT_EPOCH":"10478","LAUNCH_DATE":"2020-08-18","ARG_OF_PERICENTER":"60.8444","COUNTRY_CODE":"US","MEAN_MOTION":"15.06403107","APOAPSIS":"548.449","OBJECT_NAME":"STARLINK-1627","MEAN_ELEMENT_THEORY":"SGP4","BSTAR":"0.00016679000000","OBJECT_ID":"2020-057BD","TLE_LINE1":"1 46168U 20057BD  22189.63380010  .00002204  00000-0  16679-3 0  9992","SITE":"AFETR","FILE":"3510087","MEAN_ANOMALY":"299.2724","ELEMENT_SET_NO":"999","CLASSIFICATION_TYPE":"U","RA_OF_ASC_NODE":"162.4457","GP_ID":"207693238","MEAN_MOTION_DOT":"0.00002204","EPOCH":"2022-07-08T15:12:40.328640","PERIOD":"95.592","EPHEMERIS_TYPE":"0","REF_FRAME":"TEME","DECAY_DATE":null,"CENTER_NAME":"EARTH","PERIAPSIS":"545.960","MEAN_MOTION_DDOT":"0.0000000000000","ECCENTRICITY":"0.00017970","INCLINATION":"53.0543","OBJECT_TYPE":"PAYLOAD","TLE_LINE2":"2 46168  53.0543 162.4457 0001797  60.8444 299.2724 15.06403107104788"},{"EPOCH":"2022-07-08T18:00:17.493408","CLASSIFICATION_TYPE":"U","RA_OF_ASC_NODE":"211.8286","MEAN_MOTION_DOT":"0.00001308","GP_ID":"207692988","EPHEMERIS_TYPE":"0","PERIOD":"95.644","FILE":"3510087","ELEMENT_SET_NO":"999","MEAN_ANOMALY":"288.5521","INCLINATION":"52.9995","MEAN_MOTION_DDOT":"0.0000000000000","ECCENTRICITY":"0.00013790","TLE_LINE2":"2 46169  52.9995 211.8286 0001379  71.5617 288.5521 15.05586408104066","OBJECT_TYPE":"PAYLOAD","REF_FRAME":"TEME","CENTER_NAME":"EARTH","PERIAPSIS":"548.753","DECAY_DATE":null,"COUNTRY_CODE":"US","LAUNCH_DATE":"2020-08-18","ARG_OF_PERICENTER":"71.5617","SEMIMAJOR_AXIS":"6927.843","TIME_SYSTEM":"UTC","REV_AT_EPOCH":"10406","NORAD_CAT_ID":"46169","RCS_SIZE":"LARGE","BSTAR":"0.00010891000000","MEAN_ELEMENT_THEORY":"SGP4","SITE":"AFETR","OBJECT_ID":"2020-057BE","TLE_LINE1":"1 46169U 20057BE  22189.75020247  .00001308  00000-0  10891-3 0  9993","APOAPSIS":"550.664","MEAN_MOTION":"15.05586408","OBJECT_NAME":"STARLINK-1628"}];
